STARLINK-32097          
1 60351U 24136Y   26068.45468995  .00000322  00000+0  23000-4 0  9998
2 60351  53.1604  76.3923 0001183  76.4960 283.6173 15.30191854 89634
2025-313BC              
1 67298U 25313BC  26068.18968176  .00075331  00000+0  26410-2 0  9997
2 67298  97.3985 144.8110 0008478 328.9209  31.1528 15.29126358  7890
